0 MAST
1 31126U 07012K   13281.98871669  .00000737  00000-0  17247-3 0  8723
2 31126 097.8911 271.4752 0094146 058.5171 008.3545 14.54692419343863
0 MAST
1 31126U 07012K   13283.44950483  .00000676  00000-0  15892-3 0  8735
2 31126 097.8910 272.8545 0094049 054.0094 098.2954 14.54694930344070
0 MAST
1 31126U 07012K   13284.48117126  .00000745  00000-0  17424-3 0  8740
2 31126 097.8910 273.8285 0094017 050.8395 100.9823 14.54696363344220
0 MAST
1 31126U 07012K   13285.50661061  .00000653  00000-0  15395-3 0  8750
2 31126 097.8909 274.7967 0093951 047.6668 071.0873 14.54697984344377
0 MAST
1 31126U 07012K   13286.81346245  .00000861  00000-0  19975-3 0  8769
2 31126 097.8910 276.0304 0093847 043.6164 074.9355 14.54699281344560
0 MAST
1 31126U 07012K   13287.97076192  .00001219  00000-0  27878-3 0  8778
2 31126 097.8911 277.1229 0093734 040.0094 015.6162 14.54703150344735
0 MAST
1 31126U 07012K   13289.43394130  .00000871  00000-0  20202-3 0  8784
2 31126 097.8914 278.5040 0093603 035.4803 118.1543 14.54707051344944
0 MAST
1 31126U 07012K   13290.46575339  .00000965  00000-0  22275-3 0  8798
2 31126 097.8916 279.4780 0093516 032.2858 121.6733 14.54708815345091
0 MAST
1 31126U 07012K   13291.95976890  .00001009  00000-0  23248-3 0  8803
2 31126 097.8919 280.8884 0093420 027.6352 025.7563 14.54711290345317
0 MAST
1 31126U 07012K   13293.48477825  .00001102  00000-0  25302-3 0  8815
2 31126 097.8922 282.3281 0093307 022.9042 092.1499 14.54714600345535
0 MAST
1 31126U 07012K   13294.79274456  .00001187  00000-0  27173-3 0  8827
2 31126 097.8922 283.5632 0093206 018.8628 101.9000 14.54717571345728
0 MAST
1 31126U 07012K   13295.94888211  .00001165  00000-0  26711-3 0  8839
2 31126 097.8922 284.6550 0093102 015.2640 036.5667 14.54720448345896
